[{"OBJECT_NAME":"STARLINK-6307","OBJECT_ID":"2023-065AC","EPOCH":"2026-03-09T10:33:40.277664","MEAN_MOTION":15.02551277,"ECCENTRICITY":0.00020122,"INCLINATION":43.0046,"RA_OF_ASC_NODE":198.9845,"ARG_OF_PERICENTER":288.6025,"MEAN_ANOMALY":71.4598,"EPHEMERIS_TYPE":0,"CLASSIFICATION_TYPE":"U","NORAD_CAT_ID":56529,"ELEMENT_SET_NO":999,"REV_AT_EPOCH":15673,"BSTAR":1.0166752e-5,"MEAN_MOTION_DOT":-6.6e-7,"MEAN_MOTION_DDOT":0},{"OBJECT_NAME":"USA 25","OBJECT_ID":"1987-043H","EPOCH":"2026-03-09T22:37:27.916608","MEAN_MOTION":13.88545808,"ECCENTRICITY":0.07905574,"INCLINATION":63.2894,"RA_OF_ASC_NODE":272.1916,"ARG_OF_PERICENTER":101.4908,"MEAN_ANOMALY":267.5915,"EPHEMERIS_TYPE":0,"CLASSIFICATION_TYPE":"U","NORAD_CAT_ID":18025,"ELEMENT_SET_NO":999,"REV_AT_EPOCH":33808,"BSTAR":0.0008943639,"MEAN_MOTION_DOT":0.00017183,"MEAN_MOTION_DDOT":0}]
